start=new Date('2021-11-30T00:00:00.000Z').valueOf();
sats=[{"EPOCH":"2021-11-29T16:44:38.608512","ARG_OF_PERICENTER":"77.9429","COUNTRY_CODE":"US","RA_OF_ASC_NODE":"204.1795","SITE":"AFETR","MEAN_MOTION_DDOT":"0.0000000000000","SEMIMAJOR_AXIS":"6925.334","NORAD_CAT_ID":"45670","REV_AT_EPOCH":"8376","GP_ID":"190748754","ELEMENT_SET_NO":"999","PERIOD":"95.592","DECAY_DATE":null,"TLE_LINE2":"2 45670  53.0524 204.1795 0002184  77.9429 282.1804 15.06404846 83761","MEAN_ANOMALY":"282.1804","MEAN_ELEMENT_THEORY":"SGP4","EPHEMERIS_TYPE":"0","RCS_SIZE":"LARGE","INCLINATION":"53.0524","PERIAPSIS":"545.686","MEAN_MOTION":"15.06404846","OBJECT_NAME":"STARLINK-1453","LAUNCH_DATE":"2020-06-04","ECCENTRICITY":"0.00021840","BSTAR":"0.00013553000000","MEAN_MOTION_DOT":"0.00001738","CLASSIFICATION_TYPE":"U","TIME_SYSTEM":"UTC","OBJECT_ID":"2020-035P","REF_FRAME":"TEME","OBJECT_TYPE":"PAYLOAD","CENTER_NAME":"EARTH","FILE":"3227094","APOAPSIS":"548.711","TLE_LINE1":"1 45670U 20035P   21333.69766908  .00001738  00000-0  13553-3 0  9994"},{"SITE":"AFETR","RA_OF_ASC_NODE":"235.3230","COUNTRY_CODE":"US","MEAN_MOTION_DDOT":"0.0000000000000","ARG_OF_PERICENTER":"76.7755","EPOCH":"2021-11-29T10:39:46.888416","TLE_LINE2":"2 45671  53.0541 235.3230 0002090  76.7755 283.3467 15.06389864 83407","DECAY_DATE":null,"NORAD_CAT_ID":"45671","REV_AT_EPOCH":"8340","SEMIMAJOR_AXIS":"6925.380","GP_ID":"190719409","ELEMENT_SET_NO":"999","PERIOD":"95.593","LAUNCH_DATE":"2020-06-04","BSTAR":"0.00008070800000","ECCENTRICITY":"0.00020900","MEAN_MOTION_DOT":"0.00000920","CLASSIFICATION_TYPE":"U","OBJECT_NAME":"STARLINK-1454","PERIAPSIS":"545.797","MEAN_ELEMENT_THEORY":"SGP4","MEAN_ANOMALY":"283.3467","RCS_SIZE":"LARGE","EPHEMERIS_TYPE":"0","INCLINATION":"53.0541","MEAN_MOTION":"15.06389864","TLE_LINE1":"1 45671U 20035Q   21333.44429269  .00000920  00000-0  80708-4 0  9993","APOAPSIS":"548.692","FILE":"3226898","TIME_SYSTEM":"UTC","OBJECT_ID":"2020-035Q","CENTER_NAME":"EARTH","REF_FRAME":"TEME","OBJECT_TYPE":"PAYLOAD"},{"REV_AT_EPOCH":"8382","NORAD_CAT_ID":"45672","SEMIMAJOR_AXIS":"6925.324","PERIOD":"95.592","ELEMENT_SET_NO":"999","GP_ID":"190720660","TLE_LINE2":"2 45672  53.0536 205.5865 0001763  78.0102 282.1085 15.06407995 83827","DECAY_DATE":null,"ARG_OF_PERICENTER":"78.0102","EPOCH":"2021-11-29T09:18:48.126528","SITE":"AFETR","COUNTRY_CODE":"US","RA_OF_ASC_NODE":"205.5865","MEAN_MOTION_DDOT":"0.0000000000000","TIME_SYSTEM":"UTC","OBJECT_ID":"2020-035R","CENTER_NAME":"EARTH","OBJECT_TYPE":"PAYLOAD","REF_FRAME":"TEME","APOAPSIS":"548.410","TLE_LINE1":"1 45672U 20035R   21333.38805702 -.00001256  00000-0 -65423-4 0  9999","FILE":"3226898","PERIAPSIS":"545.968","RCS_SIZE":"LARGE","EPHEMERIS_TYPE":"0","INCLINATION":"53.0536","MEAN_ANOMALY":"282.1085","MEAN_ELEMENT_THEORY":"SGP4","MEAN_MOTION":"15.06407995","MEAN_MOTION_DOT":"-0.00001256","CLASSIFICATION_TYPE":"U","LAUNCH_DATE":"2020-06-04","ECCENTRICITY":"0.00017630","BSTAR":"-0.00006542300000","OBJECT_NAME":"STARLINK-1455"},{"OBJECT_NAME":"STARLINK-1456","MEAN_MOTION_DOT":"0.00000208","CLASSIFICATION_TYPE":"U","LAUNCH_DATE":"2020-06-04","BSTAR":"0.00003290300000","ECCENTRICITY":"0.00017540","INCLINATION":"53.0533","RCS_SIZE":"LARGE","EPHEMERIS_TYPE":"0","MEAN_ANOMALY":"291.3121","MEAN_ELEMENT_THEORY":"SGP4","PERIAPSIS":"546.005","MEAN_MOTION":"15.06398125","FILE":"3227094","APOAPSIS":"548.434","TLE_LINE1":"1 45673U 20035S   21333.72439568  .00000208  00000-0  32903-4 0  9992","OBJECT_ID":"2020-035S","TIME_SYSTEM":"UTC","OBJECT_TYPE":"PAYLOAD","REF_FRAME":"TEME","CENTER_NAME":"EARTH","COUNTRY_CODE":"US","RA_OF_ASC_NODE":"234.0718","SITE":"AFETR","MEAN_MOTION_DDOT":"0.0000000000000","EPOCH":"2021-11-29T17:23:07.786752","ARG_OF_PERICENTER":"68.8055","DECAY_DATE":null,"TLE_LINE2":"2 45673  53.0533 234.0718 0001754  68.8055 291.3121 15.06398125 83460","SEMIMAJOR_AXIS":"6925.354","REV_AT_EPOCH":"8346","NORAD_CAT_ID":"45673","PERIOD":"95.592","ELEMENT_SET_NO":"999","GP_ID":"190747503"},{"COUNTRY_CODE":"US","RA_OF_ASC_NODE":"234.0336","SITE":"AFETR","MEAN_MOTION_DDOT":"0.0000000000000","EPOCH":"2021-11-29T17:33:43.677792","ARG_OF_PERICENTER":"69.5201","DECAY_DATE":null,"TLE_LINE2":"2 45674  53.0541 234.0336 0002286  69.5201 290.6033 15.06422800 83437","SEMIMAJOR_AXIS":"6925.279","NORAD_CAT_ID":"45674","REV_AT_EPOCH":"8343","ELEMENT_SET_NO":"999","GP_ID":"190748255","PERIOD":"95.591","OBJECT_NAME":"STARLINK-1457","BSTAR":"-0.00012795000000","LAUNCH_DATE":"2020-06-04","ECCENTRICITY":"0.00022860","MEAN_MOTION_DOT":"-0.00002188","CLASSIFICATION_TYPE":"U","MEAN_ANOMALY":"290.6033","MEAN_ELEMENT_THEORY":"SGP4","RCS_SIZE":"LARGE","INCLINATION":"53.0541","EPHEMERIS_TYPE":"0","PERIAPSIS":"545.561","MEAN_MOTION":"15.06422800","FILE":"3227094","TLE_LINE1":"1 45674U 20035T   21333.73175553 -.00002188  00000-0 -12795-3 0  9992","APOAPSIS":"548.727","TIME_SYSTEM":"UTC","OBJECT_ID":"2020-035T","REF_FRAME":"TEME","OBJECT_TYPE":"PAYLOAD","CENTER_NAME":"EARTH"},{"OBJECT_ID":"2020-035U","TIME_SYSTEM":"UTC","REF_FRAME":"TEME","OBJECT_TYPE":"PAYLOAD","CENTER_NAME":"EARTH","FILE":"3226898","APOAPSIS":"548.936","TLE_LINE1":"1 45675U 20035U   21333.45533999  .00014461  00000-0  98884-3 0  9992","MEAN_ANOMALY":"300.9890","MEAN_ELEMENT_THEORY":"SGP4","INCLINATION":"53.0527","RCS_SIZE":"LARGE","EPHEMERIS_TYPE":"0","PERIAPSIS":"545.749","MEAN_MOTION":"15.06357859","OBJECT_NAME":"STARLINK-1458","LAUNCH_DATE":"2020-06-04","ECCENTRICITY":"0.00023010","BSTAR":"0.00098884000000","CLASSIFICATION_TYPE":"U","MEAN_MOTION_DOT":"0.00014461","SEMIMAJOR_AXIS":"6925.478","NORAD_CAT_ID":"45675","REV_AT_EPOCH":"8338","GP_ID":"190719909","ELEMENT_SET_NO":"999","PERIOD":"95.595","DECAY_DATE":null,"TLE_LINE2":"2 45675  53.0527 235.2794 0002301  59.1325 300.9890 15.06357859 83384","EPOCH":"2021-11-29T10:55:41.375136","ARG_OF_PERICENTER":"59.1325","COUNTRY_CODE":"US","RA_OF_ASC_NODE":"235.2794","SITE":"AFETR","MEAN_MOTION_DDOT":"0.0000000000000"},{"APOAPSIS":"548.475","TLE_LINE1":"1 45676U 20035V   21333.82391313  .00000828  00000-0  74512-4 0  9991","FILE":"3227094","OBJECT_ID":"2020-035V","TIME_SYSTEM":"UTC","CENTER_NAME":"EARTH","REF_FRAME":"TEME","OBJECT_TYPE":"PAYLOAD","BSTAR":"0.00007451200000","LAUNCH_DATE":"2020-06-04","ECCENTRICITY":"0.00018340","MEAN_MOTION_DOT":"0.00000828","CLASSIFICATION_TYPE":"U","OBJECT_NAME":"STARLINK-1460","PERIAPSIS":"545.934","MEAN_ELEMENT_THEORY":"SGP4","MEAN_ANOMALY":"291.2748","INCLINATION":"53.0533","RCS_SIZE":"LARGE","EPHEMERIS_TYPE":"0","MEAN_MOTION":"15.06402929","TLE_LINE2":"2 45676  53.0533 233.6116 0001834  68.8437 291.2748 15.06402929 83432","DECAY_DATE":null,"NORAD_CAT_ID":"45676","REV_AT_EPOCH":"8343","SEMIMAJOR_AXIS":"6925.340","GP_ID":"190747753","ELEMENT_SET_NO":"999","PERIOD":"95.592","SITE":"AFETR","COUNTRY_CODE":"US","RA_OF_ASC_NODE":"233.6116","MEAN_MOTION_DDOT":"0.0000000000000","ARG_OF_PERICENTER":"68.8437","EPOCH":"2021-11-29T19:46:26.094432"},{"EPOCH":"2021-11-29T10:29:07.457568","ARG_OF_PERICENTER":"71.7694","COUNTRY_CODE":"US","RA_OF_ASC_NODE":"235.3639","SITE":"AFETR","MEAN_MOTION_DDOT":"0.0000000000000","SEMIMAJOR_AXIS":"6925.320","REV_AT_EPOCH":"8341","NORAD_CAT_ID":"45677","PERIOD":"95.592","ELEMENT_SET_NO":"999","GP_ID":"190720911","DECAY_DATE":null,"TLE_LINE2":"2 45677  53.0550 235.3639 0001750  71.7694 288.3485 15.06409470 83417","INCLINATION":"53.0550","RCS_SIZE":"LARGE","EPHEMERIS_TYPE":"0","MEAN_ANOMALY":"288.3485","MEAN_ELEMENT_THEORY":"SGP4","PERIAPSIS":"545.973","MEAN_MOTION":"15.06409470","OBJECT_NAME":"STARLINK-1392","CLASSIFICATION_TYPE":"U","MEAN_MOTION_DOT":"0.00000040","LAUNCH_DATE":"2020-06-04","BSTAR":"0.00002159400000","ECCENTRICITY":"0.00017500","OBJECT_ID":"2020-035W","TIME_SYSTEM":"UTC","OBJECT_TYPE":"PAYLOAD","REF_FRAME":"TEME","CENTER_NAME":"EARTH","FILE":"3226898","APOAPSIS":"548.396","TLE_LINE1":"1 45677U 20035W   21333.43689187  .00000040  00000-0  21594-4 0  9996"},{"FILE":"3227094","TLE_LINE1":"1 45678U 20035X   21333.69583336  .00000296  00000-0  38784-4 0  9996","APOAPSIS":"548.768","REF_FRAME":"TEME","OBJECT_TYPE":"PAYLOAD","CENTER_NAME":"EARTH","OBJECT_ID":"2020-035X","TIME_SYSTEM":"UTC","OBJECT_NAME":"STARLINK-1393","LAUNCH_DATE":"2020-06-04","BSTAR":"0.00003878400000","ECCENTRICITY":"0.00022320","MEAN_MOTION_DOT":"0.00000296","CLASSIFICATION_TYPE":"U","MEAN_MOTION":"15.06397147","MEAN_ELEMENT_THEORY":"SGP4","MEAN_ANOMALY":"290.9381","RCS_SIZE":"LARGE","EPHEMERIS_TYPE":"0","INCLINATION":"53.0536","PERIAPSIS":"545.677","DECAY_DATE":null,"TLE_LINE2":"2 45678  53.0536 224.1919 0002232  69.1847 290.9381 15.06397147 83574","GP_ID":"190748755","ELEMENT_SET_NO":"999","PERIOD":"95.592","SEMIMAJOR_AXIS":"6925.357","NORAD_CAT_ID":"45678","REV_AT_EPOCH":"8357","MEAN_MOTION_DDOT":"0.0000000000000","RA_OF_ASC_NODE":"224.1919","COUNTRY_CODE":"US","SITE":"AFETR","EPOCH":"2021-11-29T16:42:00.002304","ARG_OF_PERICENTER":"69.1847"},{"MEAN_ELEMENT_THEORY":"SGP4","MEAN_ANOMALY":"283.0317","INCLINATION":"53.0537","RCS_SIZE":"LARGE","EPHEMERIS_TYPE":"0","PERIAPSIS":"545.673","MEAN_MOTION":"15.06398005","OBJECT_NAME":"STARLINK-1394","BSTAR":"0.00004430900000","LAUNCH_DATE":"2020-06-04","ECCENTRICITY":"0.00022340","MEAN_MOTION_DOT":"0.00000378","CLASSIFICATION_TYPE":"U","TIME_SYSTEM":"UTC","OBJECT_ID":"2020-035Y","REF_FRAME":"TEME","OBJECT_TYPE":"PAYLOAD","CENTER_NAME":"EARTH","FILE":"3227094","APOAPSIS":"548.767","TLE_LINE1":"1 45679U 20035Y   21333.69951713  .00000378  00000-0  44309-4 0  9996","EPOCH":"2021-11-29T16:47:18.280032","ARG_OF_PERICENTER":"77.0922","COUNTRY_CODE":"US","RA_OF_ASC_NODE":"224.1804","SITE":"AFETR","MEAN_MOTION_DDOT":"0.0000000000000","SEMIMAJOR_AXIS":"6925.355","NORAD_CAT_ID":"45679","REV_AT_EPOCH":"8359","GP_ID":"190748484","ELEMENT_SET_NO":"999","PERIOD":"95.592","DECAY_DATE":null,"TLE_LINE2":"2 45679  53.0537 224.1804 0002234  77.0922 283.0317 15.06398005 83591"}];
